"{\n    \"CCSDS_OMM_VERS\": \"2.0\",\n    \"COMMENT\": \"GENERATED VIA SPACE-TRACK.ORG API\",\n    \"CREATION_DATE\": \"2025-08-31T17:37:22\",\n    \"ORIGINATOR\": \"18 SPCS\",\n    \"OBJECT_NAME\": \"CYGFM05\",\n    \"OBJECT_ID\": \"2016-078A\",\n    \"CENTER_NAME\": \"EARTH\",\n    \"REF_FRAME\": \"TEME\",\n    \"TIME_SYSTEM\": \"UTC\",\n    \"MEAN_ELEMENT_THEORY\": \"SGP4\",\n    \"EPOCH\": \"2025-08-31T14:40:12.400032\",\n    \"MEAN_MOTION\": \"15.426464552\",\n    \"ECCENTRICITY\": \"0.00092534152\",\n    \"INCLINATION\": \"34.96162\",\n    \"RA_OF_ASC_NODE\": \"358.11234\",\n    \"ARG_OF_PERICENTER\": \"300.80419\",\n    \"MEAN_ANOMALY\": \"59.176712\",\n    \"EPHEMERIS_TYPE\": \"0\",\n    \"CLASSIFICATION_TYPE\": \"U\",\n    \"NORAD_CAT_ID\": \"41884\",\n    \"ELEMENT_SET_NO\": \"999\",\n    \"REV_AT_EPOCH\": \"48380\",\n    \"BSTAR\": \"0.00047651703\",\n    \"MEAN_MOTION_DOT\": \"0.00021407879\",\n    \"MEAN_MOTION_DDOT\": \"0\",\n    \"TLE_LINE0\": \"0 CYGFM05\",\n    \"TLE_LINE1\": \"1 41884U 16078A   25243.61125463  .00021408  00000-0  47652-3 0  9993\",\n    \"TLE_LINE2\": \"2 41884  34.9616 358.1123 0009253 300.8042  59.1767 15.42646455483805\",\n    \"SEMIMAJOR_AXIS\": \"6816.439\",\n    \"PERIOD\": \"93.346\",\n    \"APOAPSIS\": \"444.612\",\n    \"PERIAPSIS\": \"431.997\",\n    \"OBJECT_TYPE\": \"PAYLOAD\",\n    \"DECAYED\": \"0\"\n}"